line1,line2,validFromUtcTime
1 00000U 00000E   26001.00000000  .00000000  00000-0  27772-4 0    01,2 00000  88.8591 105.3338 0010061 269.9731 292.4910 13.55301786    05,2026-01-01T00:00:00Z
1 00000U 00000E   26002.00000000  .00000000  00000-0  27772-4 0    02,2 00000  88.8591 105.2177 0010061 267.0633 131.5759 13.55301824    02,2026-01-02T00:00:00Z
